GLOBALSTAR M035         
1 25851U 99037A   25353.28909846 -.00000049  00000+0  55347-3 0  9993
2 25851  51.9985   2.1685 0013602 281.8166 166.7877 11.04540223116716
GLOBALSTAR M032         
1 25852U 99037B   25353.76725918 -.00000038  00000+0  92974-3 0  9998
2 25852  51.9913 173.4981 0013767 116.9378 243.2829 11.19075367155566
GLOBALSTAR M051         
1 25853U 99037C   25353.93148997 -.00000110  00000+0 -93810-3 0  9996
2 25853  51.9820 312.8059 0000305  37.5043 322.5789 11.42202459153610
GLOBALSTAR M030         
1 25854U 99037D   25353.35392169 -.00000087  00000+0 -24920-3 0  9994
2 25854  51.9888 108.5269 0003403  39.2370 320.8693 11.55111338171447
GLOBALSTAR M048         
1 25872U 99041A   25353.95685750 -.00000037  00000+0  88870-3 0  9994
2 25872  51.9365 254.9619 0013317 141.7784 303.2638 11.33861103146056
GLOBALSTAR M026         
1 25873U 99041B   25353.36208309 -.00000103  00000+0 -14158-2 0  9993
2 25873  52.0001 118.0089 0001822 179.6530 191.9465 11.06849432168992
GLOBALSTAR M043         
1 25874U 99041C   25353.30716722 -.00000010  00000+0  17405-2 0  9995
2 25874  51.9432  11.5212 0013451 265.4636 107.1516 11.25698114143726
GLOBALSTAR M028         
1 25875U 99041D   25353.73637209 -.00000059  00000+0  27224-3 0  9999
2 25875  51.9644 359.7842 0063506 114.4001 246.3504 12.50593203213399
